CCSDS_OMM_VERS = 2.0
CREATION_DATE  = 
ORIGINATOR     = 

OBJECT_NAME    = STARLINK-35792
OBJECT_ID      = 2025-298T
CENTER_NAME    = EARTH
REF_FRAME      = TEME
TIME_SYSTEM    = UTC
MEAN_ELEMENT_THEORY = SGP/SGP4

EPOCH          = 2026-01-09T20:00:00.999360
MEAN_MOTION    = 15.42655497
ECCENTRICITY   = .0003799
INCLINATION    = 69.9999
RA_OF_ASC_NODE = 171.3592
ARG_OF_PERICENTER = 276.9838
MEAN_ANOMALY   = 276.9855

EPHEMERIS_TYPE = 0
CLASSIFICATION_TYPE = U
NORAD_CAT_ID   = 67092
ELEMENT_SET_NO = 999
REV_AT_EPOCH   = 543
BSTAR          = .22273E-2
MEAN_MOTION_DOT = .9846E-3
MEAN_MOTION_DDOT = 0

CCSDS_OMM_VERS = 2.0
CREATION_DATE  = 
ORIGINATOR     = 

OBJECT_NAME    = STARLINK-35784
OBJECT_ID      = 2025-298U
CENTER_NAME    = EARTH
REF_FRAME      = TEME
TIME_SYSTEM    = UTC
MEAN_ELEMENT_THEORY = SGP/SGP4

EPOCH          = 2026-01-09T14:53:13.827552
MEAN_MOTION    = 15.42732453
ECCENTRICITY   = .00034979
INCLINATION    = 69.9995
RA_OF_ASC_NODE = 172.0397
ARG_OF_PERICENTER = 258.3669
MEAN_ANOMALY   = 101.7121

EPHEMERIS_TYPE = 0
CLASSIFICATION_TYPE = U
NORAD_CAT_ID   = 67093
ELEMENT_SET_NO = 999
REV_AT_EPOCH   = 415
BSTAR          = .75484197E-3
MEAN_MOTION_DOT = .33073E-3
MEAN_MOTION_DDOT = 0

CCSDS_OMM_VERS = 2.0
CREATION_DATE  = 
ORIGINATOR     = 

OBJECT_NAME    = STARLINK-36202
OBJECT_ID      = 2025-298V
CENTER_NAME    = EARTH
REF_FRAME      = TEME
TIME_SYSTEM    = UTC
MEAN_ELEMENT_THEORY = SGP/SGP4

EPOCH          = 2026-01-09T14:47:16.201536
MEAN_MOTION    = 15.42713170
ECCENTRICITY   = .00032594
INCLINATION    = 70.0003
RA_OF_ASC_NODE = 172.0250
ARG_OF_PERICENTER = 271.2905
MEAN_ANOMALY   = 88.7904

EPHEMERIS_TYPE = 0
CLASSIFICATION_TYPE = U
NORAD_CAT_ID   = 67094
ELEMENT_SET_NO = 999
REV_AT_EPOCH   = 415
BSTAR          = .21757322E-3
MEAN_MOTION_DOT = .9392E-4
MEAN_MOTION_DDOT = 0

CCSDS_OMM_VERS = 2.0
CREATION_DATE  = 
ORIGINATOR     = 

OBJECT_NAME    = STARLINK-36227
OBJECT_ID      = 2025-298W
CENTER_NAME    = EARTH
REF_FRAME      = TEME
TIME_SYSTEM    = UTC
MEAN_ELEMENT_THEORY = SGP/SGP4

EPOCH          = 2026-01-09T20:00:00.999360
MEAN_MOTION    = 15.42623319
ECCENTRICITY   = .0002536
INCLINATION    = 70.0005
RA_OF_ASC_NODE = 171.2845
ARG_OF_PERICENTER = 285.2412
MEAN_ANOMALY   = 334.6612

EPHEMERIS_TYPE = 0
CLASSIFICATION_TYPE = U
NORAD_CAT_ID   = 67095
ELEMENT_SET_NO = 999
REV_AT_EPOCH   = 543
BSTAR          = .22027E-2
MEAN_MOTION_DOT = .9724E-3
MEAN_MOTION_DDOT = 0

CCSDS_OMM_VERS = 2.0
CREATION_DATE  = 
ORIGINATOR     = 

OBJECT_NAME    = STARLINK-36228
OBJECT_ID      = 2025-298X
CENTER_NAME    = EARTH
REF_FRAME      = TEME
TIME_SYSTEM    = UTC
MEAN_ELEMENT_THEORY = SGP/SGP4

EPOCH          = 2026-01-09T14:02:24.672192
MEAN_MOTION    = 15.52556396
ECCENTRICITY   = .00031638
INCLINATION    = 70.0002
RA_OF_ASC_NODE = 171.9118
ARG_OF_PERICENTER = 266.3100
MEAN_ANOMALY   = 93.7725

EPHEMERIS_TYPE = 0
CLASSIFICATION_TYPE = U
NORAD_CAT_ID   = 67096
ELEMENT_SET_NO = 999
REV_AT_EPOCH   = 415
BSTAR          = .19090883E-2
MEAN_MOTION_DOT = .119216E-2
MEAN_MOTION_DDOT = 0

CCSDS_OMM_VERS = 2.0
CREATION_DATE  = 
ORIGINATOR     = 

OBJECT_NAME    = STARLINK-36222
OBJECT_ID      = 2025-298Y
CENTER_NAME    = EARTH
REF_FRAME      = TEME
TIME_SYSTEM    = UTC
MEAN_ELEMENT_THEORY = SGP/SGP4

EPOCH          = 2026-01-08T21:01:49.149120
MEAN_MOTION    = 15.52490709
ECCENTRICITY   = .0002876
INCLINATION    = 70.0004
RA_OF_ASC_NODE = 173.8528
ARG_OF_PERICENTER = 292.8548
MEAN_ANOMALY   = 67.2335

EPHEMERIS_TYPE = 0
CLASSIFICATION_TYPE = U
NORAD_CAT_ID   = 67097
ELEMENT_SET_NO = 999
REV_AT_EPOCH   = 404
BSTAR          = .88585E-3
MEAN_MOTION_DOT = .54648E-3
MEAN_MOTION_DDOT = 0

CCSDS_OMM_VERS = 2.0
CREATION_DATE  = 
ORIGINATOR     = 

OBJECT_NAME    = STARLINK-36205
OBJECT_ID      = 2025-298Z
CENTER_NAME    = EARTH
REF_FRAME      = TEME
TIME_SYSTEM    = UTC
MEAN_ELEMENT_THEORY = SGP/SGP4

EPOCH          = 2026-01-09T14:58:56.338752
MEAN_MOTION    = 15.42737948
ECCENTRICITY   = .00036689
INCLINATION    = 69.9997
RA_OF_ASC_NODE = 172.0546
ARG_OF_PERICENTER = 275.4129
MEAN_ANOMALY   = 84.6634

EPHEMERIS_TYPE = 0
CLASSIFICATION_TYPE = U
NORAD_CAT_ID   = 67098
ELEMENT_SET_NO = 999
REV_AT_EPOCH   = 415
BSTAR          = .96916566E-3
MEAN_MOTION_DOT = .42567E-3
MEAN_MOTION_DDOT = 0

CCSDS_OMM_VERS = 2.0
CREATION_DATE  = 
ORIGINATOR     = 

OBJECT_NAME    = STARLINK-36193
OBJECT_ID      = 2025-298AA
CENTER_NAME    = EARTH
REF_FRAME      = TEME
TIME_SYSTEM    = UTC
MEAN_ELEMENT_THEORY = SGP/SGP4

EPOCH          = 2026-01-09T14:23:40.239456
MEAN_MOTION    = 15.42726399
ECCENTRICITY   = .00048843
INCLINATION    = 70.0000
RA_OF_ASC_NODE = 172.3773
ARG_OF_PERICENTER = 304.2573
MEAN_ANOMALY   = 55.8146

EPHEMERIS_TYPE = 0
CLASSIFICATION_TYPE = U
NORAD_CAT_ID   = 67099
ELEMENT_SET_NO = 999
REV_AT_EPOCH   = 414
BSTAR          = .10820631E-2
MEAN_MOTION_DOT = .47563E-3
MEAN_MOTION_DDOT = 0

CCSDS_OMM_VERS = 2.0
CREATION_DATE  = 
ORIGINATOR     = 

OBJECT_NAME    = STARLINK-36215
OBJECT_ID      = 2025-298AB
CENTER_NAME    = EARTH
REF_FRAME      = TEME
TIME_SYSTEM    = UTC
MEAN_ELEMENT_THEORY = SGP/SGP4

EPOCH          = 2026-01-09T14:00:24.263424
MEAN_MOTION    = 15.52569029
ECCENTRICITY   = .00037104
INCLINATION    = 70.0000
RA_OF_ASC_NODE = 171.9059
ARG_OF_PERICENTER = 277.7403
MEAN_ANOMALY   = 82.3363

EPHEMERIS_TYPE = 0
CLASSIFICATION_TYPE = U
NORAD_CAT_ID   = 67100
ELEMENT_SET_NO = 999
REV_AT_EPOCH   = 415
BSTAR          = .12107939E-2
MEAN_MOTION_DOT = .75168E-3
MEAN_MOTION_DDOT = 0

CCSDS_OMM_VERS = 2.0
CREATION_DATE  = 
ORIGINATOR     = 

OBJECT_NAME    = STARLINK-36200
OBJECT_ID      = 2025-298AC
CENTER_NAME    = EARTH
REF_FRAME      = TEME
TIME_SYSTEM    = UTC
MEAN_ELEMENT_THEORY = SGP/SGP4

EPOCH          = 2026-01-09T20:00:00.999360
MEAN_MOTION    = 15.42662714
ECCENTRICITY   = .000335
INCLINATION    = 70.0000
RA_OF_ASC_NODE = 171.3872
ARG_OF_PERICENTER = 273.9106
MEAN_ANOMALY   = 257.0469

EPHEMERIS_TYPE = 0
CLASSIFICATION_TYPE = U
NORAD_CAT_ID   = 67101
ELEMENT_SET_NO = 999
REV_AT_EPOCH   = 549
BSTAR          = .18466E-2
MEAN_MOTION_DOT = .81442E-3
MEAN_MOTION_DDOT = 0

CCSDS_OMM_VERS = 2.0
CREATION_DATE  = 
ORIGINATOR     = 

OBJECT_NAME    = STARLINK-36255
OBJECT_ID      = 2025-299A
CENTER_NAME    = EARTH
REF_FRAME      = TEME
TIME_SYSTEM    = UTC
MEAN_ELEMENT_THEORY = SGP/SGP4

EPOCH          = 2026-01-09T02:26:01.904352
MEAN_MOTION    = 15.40721001
ECCENTRICITY   = .00017974
INCLINATION    = 43.0002
RA_OF_ASC_NODE = 152.3892
ARG_OF_PERICENTER = 274.6817
MEAN_ANOMALY   = 85.3835

EPHEMERIS_TYPE = 0
CLASSIFICATION_TYPE = U
NORAD_CAT_ID   = 67102
ELEMENT_SET_NO = 999
REV_AT_EPOCH   = 392
BSTAR          = .11357743E-2
MEAN_MOTION_DOT = .4747E-3
MEAN_MOTION_DDOT = 0

CCSDS_OMM_VERS = 2.0
CREATION_DATE  = 
ORIGINATOR     = 

OBJECT_NAME    = STARLINK-36256
OBJECT_ID      = 2025-299B
CENTER_NAME    = EARTH
REF_FRAME      = TEME
TIME_SYSTEM    = UTC
MEAN_ELEMENT_THEORY = SGP/SGP4

EPOCH          = 2026-01-09T00:00:02.998944
MEAN_MOTION    = 15.40683710
ECCENTRICITY   = .0001654
INCLINATION    = 43.0004
RA_OF_ASC_NODE = 152.9133
ARG_OF_PERICENTER = 272.2472
MEAN_ANOMALY   = 269.7513

EPHEMERIS_TYPE = 0
CLASSIFICATION_TYPE = U
NORAD_CAT_ID   = 67103
ELEMENT_SET_NO = 999
REV_AT_EPOCH   = 518
BSTAR          = .32626E-3
MEAN_MOTION_DOT = .13342E-3
MEAN_MOTION_DDOT = 0

