STARLINK-35792          
1 67092U 25298T   26009.83334490  .00098460  00000+0  22273-2 0  9995
2 67092  69.9999 171.3592 0003799 276.9838 276.9855 15.42655497  5438
STARLINK-35784          
1 67093U 25298U   26009.62029893  .00033073  00000+0  75484-3 0  9993
2 67093  69.9995 172.0397 0003497 258.3669 101.7121 15.42732453  4154
STARLINK-36202          
1 67094U 25298V   26009.61615974  .00009392  00000+0  21757-3 0  9995
2 67094  70.0003 172.0250 0003259 271.2905  88.7904 15.42713170  4157
STARLINK-36227          
1 67095U 25298W   26009.83334490  .00097240  00000+0  22027-2 0  9990
2 67095  70.0005 171.2845 0002536 285.2412 334.6612 15.42623319  5432
STARLINK-36228          
1 67096U 25298X   26009.58500778  .00119216  00000+0  19091-2 0  9992
2 67096  70.0002 171.9118 0003163 266.3100  93.7725 15.52556396  4158
STARLINK-36222          
1 67097U 25298Y   26008.87626330  .00054648  00000+0  88585-3 0  9999
2 67097  70.0004 173.8528 0002876 292.8548  67.2335 15.52490709  4043
STARLINK-36205          
1 67098U 25298Z   26009.62426318  .00042567  00000+0  96917-3 0  9993
2 67098  69.9997 172.0546 0003668 275.4129  84.6634 15.42737948  4150
STARLINK-36193          
1 67099U 25298AA  26009.59977129  .00047563  00000+0  10821-2 0  9991
2 67099  70.0000 172.3773 0004884 304.2573  55.8146 15.42726399  4144
STARLINK-36215          
1 67100U 25298AB  26009.58361416  .00075168  00000+0  12108-2 0  9991
2 67100  70.0000 171.9059 0003710 277.7403  82.3363 15.52569029  4155
STARLINK-36200          
1 67101U 25298AC  26009.83334490  .00081442  00000+0  18466-2 0  9997
2 67101  70.0000 171.3872 0003350 273.9106 257.0469 15.42662714  5491
STARLINK-36255          
1 67102U 25299A   26009.10141093  .00047470  00000+0  11358-2 0  9990
2 67102  43.0002 152.3892 0001797 274.6817  85.3835 15.40721001  3923
STARLINK-36256          
1 67103U 25299B   26009.00003471  .00013342  00000+0  32626-3 0  9990
2 67103  43.0004 152.9133 0001654 272.2472 269.7513 15.40683710  5188
